NORAD_CAT_ID,OBJECT_NAME,OBJECT_TYPE,EPOCH,MEAN_MOTION,ECCENTRICITY,INCLINATION,RA_OF_ASC_NODE,ARG_OF_PERICENTER,MEAN_ANOMALY,BSTAR,MEAN_MOTION_DOT,MEAN_MOTION_DDOT,TLE_LINE0,TLE_LINE1,TLE_LINE2,SEMIMAJOR_AXIS,PERIOD,APOGEE,PERIGEE,DECAYED
54785.0,STARLINK-5440,PAYLOAD,2023-01-23 09:52:02,15.73216613,7e-05,53.2199,124.6645,43.4036,316.7039,4.7045e-05,5.993e-05,0.0,0 STARLINK-5440,1 54785U 22175AD  23023.41114290  .00005993  00000-0  47045-4 0  9998,2 54785  53.2199 124.6645 0000700  43.4036 316.7039 15.73216613  5509,6727.848000000001,91.532,350.184,349.242,0.0
54785.0,STARLINK-5440,PAYLOAD,2023-01-23 15:57:58,15.73201742,8.49e-05,53.2186,123.4076,76.9664,283.1451,6.458099999999999e-06,2.87e-06,0.0,0 STARLINK-5440,1 54785U 22175AD  23023.66525822  .00000287  00000-0  64581-5 0  9998,2 54785  53.2186 123.4076 0000849  76.9664 283.1451 15.73201742  5548,6727.89,91.533,350.326,349.184,0.0
54785.0,STARLINK-5440,PAYLOAD,2023-01-25 12:10:53,15.73213401,0.0001088999999999,53.2185,114.2904,65.9867,294.1267,3.2879e-05,3.999e-05,0.0,0 STARLINK-5440,1 54785U 22175AD  23025.50756466  .00003999  00000-0  32879-4 0  9990,2 54785  53.2185 114.2904 0001089  65.9867 294.1267 15.73213401  5839,6727.857,91.532,350.455,348.98900000000003,0.0
54785.0,STARLINK-5440,PAYLOAD,2023-01-26 11:03:06,15.73189313,0.0001204,53.2181,109.5765,64.4283,295.6861,-2.2479e-05,-3.771e-05,0.0,0 STARLINK-5440,1 54785U 22175AD  23026.46049085 -.00003771  00000-0 -22479-4 0  9993,2 54785  53.2181 109.5765 0001204  64.4283 295.6861 15.73189313  5988,6727.926,91.534,350.601,348.981,0.0
54785.0,STARLINK-5440,PAYLOAD,2023-01-26 12:34:35,15.73192756,0.0001261,53.2186,109.2626,68.5298,291.5856,-1.3421e-05,-2.502e-05,0.0,0 STARLINK-5440,1 54785U 22175AD  23026.52401792 -.00002502  00000-0 -13421-4 0  9995,2 54785  53.2186 109.2626 0001261  68.5298 291.5856 15.73192756  8156,6727.916,91.534,350.629,348.932,0.0
54785.0,STARLINK-5440,PAYLOAD,2023-01-27 11:26:46,15.73206463,0.0001053,53.2189,104.5451,102.6323,257.4815,1.3199e-05,1.234e-05,0.0,0 STARLINK-5440,1 54785U 22175AD  23027.47693012  .00001234  00000-0  13199-4 0  9999,2 54785  53.2189 104.5451 0001053 102.6323 257.4815 15.73206463  6145,6727.877,91.533,350.45,349.033,0.0
54785.0,STARLINK-5440,PAYLOAD,2023-01-28 11:50:27,15.7320764,0.0001166,53.2185,99.5169,103.1331,256.9819,3.9097e-05,4.872e-05,0.0,0 STARLINK-5440,1 54785U 22175AD  23028.49337759  .00004872  00000-0  39097-4 0  9991,2 54785  53.2185  99.5169 0001166 103.1331 256.9819 15.73207640  6304,6727.873,91.533,350.523,348.954,0.0
54785.0,STARLINK-5440,PAYLOAD,2023-01-28 13:21:56,15.73199154,0.0001123,53.2184,99.2021,96.7295,263.3853,2.3528e-05,2.683e-05,0.0,0 STARLINK-5440,1 54785U 22175AD  23028.55690889  .00002683  00000-0  23528-4 0  9994,2 54785  53.2184  99.2021 0001123  96.7295 263.3853 15.73199154  8476,6727.898,91.533,350.518,349.007,0.0
54785.0,STARLINK-5440,PAYLOAD,2023-01-28 16:24:54,15.73208158,0.0001632,53.2189,98.5739,63.7967,296.3221,3.7222e-05,4.608e-05,0.0,0 STARLINK-5440,1 54785U 22175AD  23028.68396266  .00004608  00000-0  37222-4 0  9995,2 54785  53.2189  98.5739 0001632  63.7967 296.3221 15.73208158  8496,6727.872,91.533,350.835,348.639,0.0
54785.0,STARLINK-5440,PAYLOAD,2023-01-29 10:42:40,15.73205996,9.82e-05,53.2187,94.8003,79.2721,280.8409,1.4686e-05,1.443e-05,0.0,0 STARLINK-5440,1 54785U 22175AD  23029.44629679  .00001443  00000-0  14686-4 0  9990,2 54785  53.2187  94.8003 0000982  79.2721 280.8409 15.73205996  6451,6727.878,91.533,350.404,349.082,0.0
54785.0,STARLINK-5440,PAYLOAD,2023-01-29 21:23:01,15.73206595,9.98e-05,53.218,92.6022,96.5601,263.5533,1.091e-05,9.12e-06,0.0,0 STARLINK-5440,1 54785U 22175AD  23029.89099208  .00000912  00000-0  10910-4 0  9994,2 54785  53.2180  92.6022 0000998  96.5601 263.5533 15.73206595  8686,6727.876,91.533,350.413,349.07,0.0
54785.0,STARLINK-5440,PAYLOAD,2023-01-30 11:06:20,15.73218895,0.0001165,53.2183,89.7717,71.0862,289.0284,4.9261e-05,6.304e-05,0.0,0 STARLINK-5440,1 54785U 22175AD  23030.46273997  .00006304  00000-0  49261-4 0  9990,2 54785  53.2183  89.7717 0001165  71.0862 289.0284 15.73218895  8773,6727.841,91.532,350.49,348.923,0.0
54785.0,STARLINK-5440,PAYLOAD,2023-01-31 02:21:09,15.73211171,0.0001487,53.2187,86.6286,55.1787,304.9372,3.0814e-05,3.708e-05,0.0,0 STARLINK-5440,1 54785U 22175AD  23031.09802185  .00003708  00000-0  30814-4 0  9996,2 54785  53.2187  86.6286 0001487  55.1787 304.9372 15.73211171  6717,6727.863,91.533,350.729,348.728,0.0
54785.0,STARLINK-5440,PAYLOAD,2023-01-31 05:24:06,15.73198488,0.0001389,53.2187,85.9992,62.5582,297.558,-1.114e-05,-2.183e-05,0.0,0 STARLINK-5440,1 54785U 22175AD  23031.22507991 -.00002183  00000-0 -11140-4 0  9997,2 54785  53.2187  85.9992 0001389  62.5582 297.5580 15.73198488  6734,6727.899,91.533,350.699,348.83,0.0
54785.0,STARLINK-5440,PAYLOAD,2023-01-31 20:38:54,15.73215779,0.0001283,53.2178,82.8565,90.7166,269.4001,3.3908e-05,4.144e-05,0.0,0 STARLINK-5440,1 54785U 22175AD  23031.86035327  .00004144  00000-0  33908-4 0  9999,2 54785  53.2178  82.8565 0001283  90.7166 269.4001 15.73215779  8999,6727.85,91.532,350.578,348.852,0.0
54785.0,STARLINK-5440,PAYLOAD,2023-02-01 13:25:11,15.73192906,0.0001393,53.2182,79.3979,118.8469,241.2691,-3.7493e-05,-5.877e-05,0.0,0 STARLINK-5440,1 54785U 22175AD  23032.55916147 -.00005877  00000-0 -37493-4 0  9993,2 54785  53.2182  79.3979 0001393 118.8469 241.2691 15.73192906  9107,6727.915,91.534,350.718,348.843,0.0
54785.0,STARLINK-5440,PAYLOAD,2023-02-02 03:08:30,15.73215361,0.0001959,53.2189,76.5685,108.9741,251.1492,7.1235e-05,9.394e-05,0.0,0 STARLINK-5440,1 54785U 22175AD  23033.13090964  .00009394  00000-0  71235-4 0  9996,2 54785  53.2189  76.5685 0001959 108.9741 251.1492 15.73215361  7038,6727.851,91.532,351.034,348.398,0.0
54785.0,STARLINK-5440,PAYLOAD,2023-02-02 09:14:25,15.73219457,0.0001527,53.2185,75.3108,81.5925,278.5268,7.3326e-05,9.691e-05,0.0,0 STARLINK-5440,1 54785U 22175AD  23033.38502133  .00009691  00000-0  73326-4 0  9992,2 54785  53.2185  75.3108 0001527  81.5925 278.5268 15.73219457  9230,6727.84,91.532,350.732,348.677,0.0
54785.0,STARLINK-5440,PAYLOAD,2023-02-02 13:48:52,15.73217374,0.0001522,53.2182,74.3688,75.725,284.3939,5.736e-05,7.443e-05,0.0,0 STARLINK-5440,1 54785U 22175AD  23033.57560475  .00007443  00000-0  57360-4 0  9999,2 54785  53.2182  74.3688 0001522  75.7250 284.3939 15.73217374  7100,6727.846,91.532,350.735,348.687,0.0
54785.0,STARLINK-5440,PAYLOAD,2023-02-03 03:32:12,15.73196031,0.000136,53.2185,71.5388,92.171,267.9466,-7.9843e-06,-1.74e-05,0.0,0 STARLINK-5440,1 54785U 22175AD  23034.14736378 -.00001740  00000-0 -79843-5 0  9997,2 54785  53.2185  71.5388 0001360  92.1710 267.9466 15.73196031  7190,6727.906,91.533,350.686,348.856,0.0
54785.0,STARLINK-5440,PAYLOAD,2023-02-03 08:06:38,15.73223645,0.0001812,53.2184,70.5958,107.0953,253.0266,0.00011017,0.00014884,0.0,0 STARLINK-5440,1 54785U 22175AD  23034.33794313  .00014884  00000-0  11017-3 0  9999,2 54785  53.2184  70.5958 0001812 107.0953 253.0266 15.73223645  7228,6727.828,91.532,350.912,348.474,0.0
54785.0,STARLINK-5440,PAYLOAD,2023-02-04 11:33:16,15.73209634,0.0002014,53.2176,64.9385,58.1777,301.9439,3.1504e-05,3.804e-05,0.0,0 STARLINK-5440,1 54785U 22175AD  23035.48144295  .00003804  00000-0  31504-4 0  9998,2 54785  53.2176  64.9385 0002014  58.1777 301.9439 15.73209634  7402,6727.868,91.533,351.088,348.378,0.0
54785.0,STARLINK-5440,PAYLOAD,2023-02-04 13:04:45,15.73207617,0.0002042,53.2175,64.6236,56.1993,303.9221,2.5445e-05,2.952e-05,0.0,0 STARLINK-5440,1 54785U 22175AD  23035.54497139  .00002952  00000-0  25445-4 0  9993,2 54785  53.2175  64.6236 0002042  56.1993 303.9221 15.73207617  9572,6727.873,91.533,351.112,348.365,0.0
54785.0,STARLINK-5440,PAYLOAD,2023-02-04 19:10:40,15.73199795,0.0001396,53.2181,63.3663,68.7465,291.3704,-1.2767e-05,-2.411e-05,0.0,0 STARLINK-5440,1 54785U 22175AD  23035.79907969 -.00002411  00000-0 -12767-4 0  9992,2 54785  53.2181  63.3663 0001396  68.7465 291.3704 15.73199795  9611,6727.896,91.533,350.7,348.822,0.0
54785.0,STARLINK-5440,PAYLOAD,2023-02-05 11:56:57,15.73202574,0.0001498,53.2178,59.9065,107.7989,252.3195,1.1392e-06,-4.6e-06,0.0,0 STARLINK-5440,1 54785U 22175AD  23036.49789211 -.00000460  00000-0  11392-5 0  9993,2 54785  53.2178  59.9065 0001498 107.7989 252.3195 15.73202574  9725,6727.888,91.533,350.761,348.745,0.0
54785.0,STARLINK-5440,PAYLOAD,2023-02-06 10:49:10,15.73203714,0.0001778,53.2169,55.191,68.9423,291.1788,8.4115e-06,5.6e-06,0.0,0 STARLINK-5440,1 54785U 22175AD  23037.45081087  .00000560  00000-0  84115-5 0  9999,2 54785  53.2169  55.1910 0001778  68.9423 291.1788 15.73203714  7717,6727.885,91.533,350.946,348.553,0.0
54785.0,STARLINK-5440,PAYLOAD,2023-02-06 12:20:38,15.73217521,0.0001824,53.2168,54.8767,66.46,293.6611,4.7426e-05,6.045e-05,0.0,0 STARLINK-5440,1 54785U 22175AD  23037.51433430  .00006045  00000-0  47426-4 0  9996,2 54785  53.2168  54.8767 0001824  66.4600 293.6611 15.73217521  9887,6727.845,91.532,350.937,348.483,0.0
54785.0,STARLINK-5440,PAYLOAD,2023-02-06 18:26:33,15.73210608,0.0001236,53.2169,53.6192,74.0126,286.103,2.4967e-05,2.887e-05,0.0,0 STARLINK-5440,1 54785U 22175AD  23037.76844566  .00002887  00000-0  24967-4 0  9994,2 54785  53.2169  53.6192 0001236  74.0126 286.1030 15.73210608  9928,6727.865,91.533,350.561,348.898,0.0
54785.0,STARLINK-5440,PAYLOAD,2023-02-07 12:44:19,15.73221955,0.0001353,53.2167,49.8469,80.0333,280.084,3.9348e-05,4.91e-05,0.0,0 STARLINK-5440,1 54785U 22175AD  23038.53077754  .00004910  00000-0  39348-4 0  9995,2 54785  53.2167  49.8469 0001353  80.0333 280.0840 15.73221955 10041,6727.833,91.532,350.608,348.787,0.0
54785.0,STARLINK-5440,PAYLOAD,2023-02-08 03:59:07,15.73220922,0.000197,53.2164,46.7028,109.9401,250.1831,4.0957e-05,5.136e-05,0.0,0 STARLINK-5440,1 54785U 22175AD  23039.16605694  .00005136  00000-0  40957-4 0  9994,2 54785  53.2164  46.7028 0001970 109.9401 250.1831 15.73220922  7987,6727.836,91.532,351.026,348.375,0.0
